{"type": "FeatureCollection", "features": [ {"type": "Feature", "properties": {"norad_id": 30196, "name": "FENGYUN 1C DEB", "group": "fengyun-1c-debris", "lat": 58.610589962757075, "lon": -92.71339920809801, "alt_km": 750.8988929785601, "timestamp": "2025-12-06T07:31:40.511465+00:00", "meta": {"OBJECT_NAME": "FENGYUN 1C DEB", "OBJECT_ID": "1999-025VD", "EPOCH": "2025-12-05T05:50:05.104032", "MEAN_MOTION": 14.2584413, "ECCENTRICITY": 0.00870156, "INCLINATION": 98.6407, "RA_OF_ASC_NODE": 71.8, "ARG_OF_PERICENTER": 84.7425, "MEAN_ANOMALY": 302.8275, "EPHEMERIS_TYPE": 0, "CLASSIFICATION_TYPE": "U", "NORAD_CAT_ID": 30196, "ELEMENT_SET_NO": 999, "REV_AT_EPOCH": 98258, "BSTAR": 0.00011418013, "MEAN_MOTION_DOT": 2.4e-06, "MEAN_MOTION_DDOT": 0}, "tle": {"line1": "1 30196U 99025VD  25339.24311463  .00000240  00000+0  11418-3 0  9993", "line2": "2 30196  98.6407  71.8000 0087015  84.7425 302.8275 14.25844130982583"}}, "geometry": {"type": "Point", "coordinates": [-92.71339920809801, 58.610589962757075]}}, {"type": "Feature", "properties": {"norad_id": 30197, "name": "FENGYUN 1C DEB", "group": "fengyun-1c-debris", "lat": 61.0517666723656, "lon": -111.1079709220848, "alt_km": 802.2127978456501, "timestamp": "2025-12-06T07:31:40.511475+00:00", "meta": {"OBJECT_NAME": "FENGYUN 1C DEB", "OBJECT_ID": "1999-025VE", "EPOCH": "2025-12-05T06:53:15.225792", "MEAN_MOTION": 14.37136373, "ECCENTRICITY": 0.00569164, "INCLINATION": 98.9378, "RA_OF_ASC_NODE": 264.3559, "ARG_OF_PERICENTER": 237.104, "MEAN_ANOMALY": 276.6623, "EPHEMERIS_TYPE": 0, "CLASSIFICATION_TYPE": "U", "NORAD_CAT_ID": 30197, "ELEMENT_SET_NO": 999, "REV_AT_EPOCH": 98379, "BSTAR": 0.0016963694, "MEAN_MOTION_DOT": 5.093e-05, "MEAN_MOTION_DDOT": 0}, "tle": {"line1": "1 30197U 99025VE  25339.28698178  .00005093  00000+0  16964-2 0  9990", "line2": "2 30197  98.9378 264.3559 0056916 237.1040 276.6623 14.37136373983790"}}, "geometry": {"type": "Point", "coordinates": [-111.1079709220848, 61.0517666723656]}}, {"type": "Feature", "properties": {"norad_id": 30198, "name": "FENGYUN 1C DEB", "group": "fengyun-1c-debris", "lat": 70.47662720983753, "lon": 86.55068340123832, "alt_km": 780.5693949737979, "timestamp": "2025-12-06T07:31:40.511486+00:00", "meta": {"OBJECT_NAME": "FENGYUN 1C DEB", "OBJECT_ID": "1999-025VF", "EPOCH": "2025-12-05T01:39:56.108160", "MEAN_MOTION": 14.50146925, "ECCENTRICITY": 0.01070936, "INCLINATION": 98.4486, "RA_OF_ASC_NODE": 110.0855, "ARG_OF_PERICENTER": 221.6034, "MEAN_ANOMALY": 199.451, "EPHEMERIS_TYPE": 0, "CLASSIFICATION_TYPE": "U", "NORAD_CAT_ID": 30198, "ELEMENT_SET_NO": 999, "REV_AT_EPOCH": 98396, "BSTAR": 0.0040041677, "MEAN_MOTION_DOT": 0.00016731, "MEAN_MOTION_DDOT": 0}, "tle": {"line1": "1 30198U 99025VF  25339.06939940  .00016731  00000+0  40042-2 0  9997", "line2": "2 30198  98.4486 110.0855 0107093 221.6034 199.4510 14.50146925983961"}}, "geometry": {"type": "Point", "coordinates": [86.55068340123832, 70.47662720983753]}}, {"type": "Feature", "properties": {"norad_id": 30199, "name": "FENGYUN 1C DEB", "group": "fengyun-1c-debris", "lat": 3.1527883038748574, "lon": 3.727201410316587, "alt_km": 720.4010511534207, "timestamp": "2025-12-06T07:31:40.511496+00:00", "meta": {"OBJECT_NAME": "FENGYUN 1C DEB", "OBJECT_ID": "1999-025VG", "EPOCH": "2025-12-05T01:45:48.672000", "MEAN_MOTION": 14.38443122, "ECCENTRICITY": 0.00779921, "INCLINATION": 98.3854, "RA_OF_ASC_NODE": 2.9814, "ARG_OF_PERICENTER": 331.9279, "MEAN_ANOMALY": 92.3862, "EPHEMERIS_TYPE": 0, "CLASSIFICATION_TYPE": "U", "NORAD_CAT_ID": 30199, "ELEMENT_SET_NO": 999, "REV_AT_EPOCH": 98300, "BSTAR": 0.0021076993, "MEAN_MOTION_DOT": 6.625e-05, "MEAN_MOTION_DDOT": 0}, "tle": {"line1": "1 30199U 99025VG  25339.07348000  .00006625  00000+0  21077-2 0  9998", "line2": "2 30199  98.3854   2.9814 0077992 331.9279  92.3862 14.38443122983005"}}, "geometry": {"type": "Point", "coordinates": [3.727201410316587, 3.1527883038748574]}}, {"type": "Feature", "properties": {"norad_id": 30200, "name": "FENGYUN 1C DEB", "group": "fengyun-1c-debris", "lat": -11.352568689908138, "lon": 176.6965632357757, "alt_km": 887.6326889331831, "timestamp": "2025-12-06T07:31:40.511506+00:00", "meta": {"OBJECT_NAME": "FENGYUN 1C DEB", "OBJECT_ID": "1999-025VH", "EPOCH": "2025-12-05T01:11:29.441184", "MEAN_MOTION": 14.22268005, "ECCENTRICITY": 0.01474637, "INCLINATION": 99.1134, "RA_OF_ASC_NODE": 173.5433, "ARG_OF_PERICENTER": 121.1238, "MEAN_ANOMALY": 240.4499, "EPHEMERIS_TYPE": 0, "CLASSIFICATION_TYPE": "U", "NORAD_CAT_ID": 30200, "ELEMENT_SET_NO": 999, "REV_AT_EPOCH": 97873, "BSTAR": 0.00028109322, "MEAN_MOTION_DOT": 6.51e-06, "MEAN_MOTION_DDOT": 0}, "tle": {"line1": "1 30200U 99025VH  25339.04964631  .00000651  00000+0  28109-3 0  9999", "line2": "2 30200  99.1134 173.5433 0147463 121.1238 240.4499 14.22268005978739"}}, "geometry": {"type": "Point", "coordinates": [176.6965632357757, -11.352568689908138]}}, {"type": "Feature", "properties": {"norad_id": 30201, "name": "FENGYUN 1C DEB", "group": "fengyun-1c-debris", "lat": -63.19541875779013, "lon": -85.04457447700564, "alt_km": 821.3906530853446, "timestamp": "2025-12-06T07:31:40.511517+00:00", "meta": {"OBJECT_NAME": "FENGYUN 1C DEB", "OBJECT_ID": "1999-025VJ", "EPOCH": "2025-12-04T22:18:52.259328", "MEAN_MOTION": 14.22917314, "ECCENTRICITY": 0.002885, "INCLINATION": 99.4008, "RA_OF_ASC_NODE": 112.621, "ARG_OF_PERICENTER": 335.3982, "MEAN_ANOMALY": 24.5816, "EPHEMERIS_TYPE": 0, "CLASSIFICATION_TYPE": "U", "NORAD_CAT_ID": 30201, "ELEMENT_SET_NO": 999, "REV_AT_EPOCH": 97716, "BSTAR": 0.00079492, "MEAN_MOTION_DOT": 1.745e-05, "MEAN_MOTION_DDOT": 0}, "tle": {"line1": "1 30201U 99025VJ  25338.92977152  .00001745  00000+0  79492-3 0  9994", "line2": "2 30201  99.4008 112.6210 0028850 335.3982  24.5816 14.22917314977167"}}, "geometry": {"type": "Point", "coordinates": [-85.04457447700564, -63.19541875779013]}}, {"type": "Feature", "properties": {"norad_id": 30202, "name": "FENGYUN 1C DEB", "group": "fengyun-1c-debris", "lat": -80.70793921636518, "lon": -170.93470423779158, "alt_km": 753.591875616251, "timestamp": "2025-12-06T07:31:40.511527+00:00", "meta": {"OBJECT_NAME": "FENGYUN 1C DEB", "OBJECT_ID": "1999-025VK", "EPOCH": "2025-12-05T05:30:03.442464", "MEAN_MOTION": 14.52157726, "ECCENTRICITY": 0.0039508, "INCLINATION": 98.6413, "RA_OF_ASC_NODE": 76.3007, "ARG_OF_PERICENTER": 82.2536, "MEAN_ANOMALY": 278.3142, "EPHEMERIS_TYPE": 0, "CLASSIFICATION_TYPE": "U", "NORAD_CAT_ID": 30202, "ELEMENT_SET_NO": 999, "REV_AT_EPOCH": 98180, "BSTAR": 0.0045621728, "MEAN_MOTION_DOT": 0.0001868, "MEAN_MOTION_DDOT": 0}, "tle": {"line1": "1 30202U 99025VK  25339.22920651  .00018680  00000+0  45622-2 0  9994", "line2": "2 30202  98.6413  76.3007 0039508  82.2536 278.3142 14.52157726981807"}}, "geometry": {"type": "Point", "coordinates": [-170.93470423779158, -80.70793921636518]}}, {"type": "Feature", "properties": {"norad_id": 30205, "name": "FENGYUN 1C DEB", "group": "fengyun-1c-debris", "lat": 3.8570685471465147, "lon": 91.26368779552152, "alt_km": 1023.8039217686537, "timestamp": "2025-12-06T07:31:40.511537+00:00", "meta": {"OBJECT_NAME": "FENGYUN 1C DEB", "OBJECT_ID": "1999-025VN", "EPOCH": "2025-12-05T07:35:22.431840", "MEAN_MOTION": 13.88031171, "ECCENTRICITY": 0.01207321, "INCLINATION": 98.9968, "RA_OF_ASC_NODE": 90.9142, "ARG_OF_PERICENTER": 199.9177, "MEAN_ANOMALY": 222.4042, "EPHEMERIS_TYPE": 0, "CLASSIFICATION_TYPE": "U", "NORAD_CAT_ID": 30205, "ELEMENT_SET_NO": 999, "REV_AT_EPOCH": 95535, "BSTAR": 0.00063566598, "MEAN_MOTION_DOT": 7.6e-06, "MEAN_MOTION_DDOT": 0}, "tle": {"line1": "1 30205U 99025VN  25339.31623185  .00000760  00000+0  63567-3 0  9998", "line2": "2 30205  98.9968  90.9142 0120732 199.9177 222.4042 13.88031171955350"}}, "geometry": {"type": "Point", "coordinates": [91.26368779552152, 3.8570685471465147]}}, {"type": "Feature", "properties": {"norad_id": 30206, "name": "FENGYUN 1C DEB", "group": "fengyun-1c-debris", "lat": -39.99850604731208, "lon": -13.292645390013185, "alt_km": 744.8404767658176, "timestamp": "2025-12-06T07:31:40.511547+00:00", "meta": {"OBJECT_NAME": "FENGYUN 1C DEB", "OBJECT_ID": "1999-025VP", "EPOCH": "2025-12-04T22:34:12.745056", "MEAN_MOTION": 14.49105705, "ECCENTRICITY": 0.0146402, "INCLINATION": 98.2307, "RA_OF_ASC_NODE": 338.3917, "ARG_OF_PERICENTER": 60.0387, "MEAN_ANOMALY": 301.525, "EPHEMERIS_TYPE": 0, "CLASSIFICATION_TYPE": "U", "NORAD_CAT_ID": 30206, "ELEMENT_SET_NO": 999, "REV_AT_EPOCH": 99288, "BSTAR": 0.00087438, "MEAN_MOTION_DOT": 3.762e-05, "MEAN_MOTION_DDOT": 0}, "tle": {"line1": "1 30206U 99025VP  25338.94042529  .00003762  00000+0  87438-3 0  9992", "line2": "2 30206  98.2307 338.3917 0146402  60.0387 301.5250 14.49105705992885"}}, "geometry": {"type": "Point", "coordinates": [-13.292645390013185, -39.99850604731208]}}, {"type": "Feature", "properties": {"norad_id": 30207, "name": "FENGYUN 1C DEB", "group": "fengyun-1c-debris", "lat": 72.73036869223421, "lon": -59.35197953256967, "alt_km": 862.5992769230743, "timestamp": "2025-12-06T07:31:40.511558+00:00", "meta": {"OBJECT_NAME": "FENGYUN 1C DEB", "OBJECT_ID": "1999-025VQ", "EPOCH": "2025-12-04T19:04:35.584320", "MEAN_MOTION": 13.79126979, "ECCENTRICITY": 0.02602911, "INCLINATION": 98.5741, "RA_OF_ASC_NODE": 90.2407, "ARG_OF_PERICENTER": 169.806, "MEAN_ANOMALY": 321.2292, "EPHEMERIS_TYPE": 0, "CLASSIFICATION_TYPE": "U", "NORAD_CAT_ID": 30207, "ELEMENT_SET_NO": 999, "REV_AT_EPOCH": 94953, "BSTAR": 0.00055811123, "MEAN_MOTION_DOT": 6.98e-06, "MEAN_MOTION_DDOT": 0}, "tle": {"line1": "1 30207U 99025VQ  25338.79485630  .00000698  00000+0  55811-3 0  9995", "line2": "2 30207  98.5741  90.2407 0260291 169.8060 321.2292 13.79126979949535"}}, "geometry": {"type": "Point", "coordinates": [-59.35197953256967, 72.73036869223421]}}]}